SKYSAT-A                
1 39418U 13066C   26187.10574744  .00003198  00000+0  18356-3 0  9993
2 39418  97.3798 235.9003 0019835 246.7138 113.2005 15.13081891691341
SKYSAT-B                
1 40072U 14037D   26186.88586376  .00001473  00000+0  16685-3 0  9995
2 40072  98.3847 146.9181 0004793 204.6990 155.3996 14.88076911648749
SKYSAT-C1               
1 41601U 16040C   26187.03819040  .00010202  00000+0  28718-3 0  9995
2 41601  96.9555 217.7387 0001314  16.1910 343.9377 15.36639820560768
SKYSAT-C4               
1 41771U 16058B   26187.06776247  .00017787  00000+0  32748-3 0  9999
2 41771  96.9166 208.0555 0003011 132.9583 227.1922 15.49219019548395
SKYSAT-C5               
1 41772U 16058C   26187.07891071  .00008661  00000+0  25924-3 0  9993
2 41772  97.0456 226.8780 0002351 178.9118 181.2132 15.34757290546649
SKYSAT-C2               
1 41773U 16058D   26187.01017763  .00013487  00000+0  31260-3 0  9998
2 41773  97.0164 208.4005 0002646  26.2202 333.9180 15.42527357547950
SKYSAT-C3               
1 41774U 16058E   26187.08784370  .00024357  00000+0  38585-3 0  9996
2 41774  96.8997 217.2161 0001813 134.0548 226.0856 15.53401724549044
SKYSAT-C11              
1 42987U 17068A   26186.93561274  .00029636  00000+0  38259-3 0  9997
2 42987  97.4371 336.5978 0000516 160.6188 199.5088 15.58936903486160
SKYSAT-C10              
1 42988U 17068B   26187.26479583  .00011177  00000+0  33156-3 0  9998
2 42988  97.4531 324.3040 0001288 108.7243 251.4140 15.34990794485287
SKYSAT-C9               
1 42989U 17068C   26186.93073923  .00014539  00000+0  34186-3 0  9999
2 42989  97.4450 325.0820 0009245  74.3099 285.9167 15.42050982485646
SKYSAT-C8               
1 42990U 17068D   26186.88143119  .00011508  00000+0  31644-3 0  9999
2 42990  97.4548 323.7887 0001189  95.6373 264.5007 15.37361203485184
SKYSAT-C7               
1 42991U 17068E   26186.94071785  .00011320  00000+0  31159-3 0  9999
2 42991  97.4558 324.8394 0006499  51.1899 308.9925 15.37314822485255
SKYSAT-C6               
1 42992U 17068F   26186.86578995  .00010482  00000+0  31781-3 0  9995
2 42992  97.4595 324.6589 0005179 100.5381 259.6445 15.34304901485185
SKYSAT-C12              
1 43797U 18099AR  26187.02008887  .00020319  00000+0  36921-3 0  9992
2 43797  96.9252 209.5056 0005928  91.0916 269.1016 15.49555532424775
